GPS BIIR-5  (PRN 22)    
1 26407U 00040A   26177.27244780  .00000080  00000+0  00000+0 0  9996
2 26407  54.8504 214.8013 0120910 302.5469  61.1141  2.00557847190134
GPS BIIR-8  (PRN 16)    
1 27663U 03005A   26177.15567986  .00000080  00000+0  00000+0 0  9998
2 27663  54.8811 214.6123 0148006  53.0952   2.3339  2.00560186171495
GPS BIIR-11 (PRN 19)    
1 28190U 04009A   26176.32131095 -.00000063  00000+0  00000+0 0  9997
2 28190  54.8228 275.3584 0116434 173.4542 152.4865  2.00554574163104
GPS BIIR-13 (PRN 02)    
1 28474U 04045A   26177.30150748 -.00000106  00000+0  00000+0 0  9995
2 28474  55.1304 324.5291 0169918 316.6301  61.9972  2.00556446158612
GPS BIIRM-1 (PRN 17)    
1 28874U 05038A   26176.29662784 -.00000059  00000+0  00000+0 0  9994
2 28874  54.8713 272.8500 0127971 296.2313  40.8481  2.00565229151997
GPS BIIRM-2 (PRN 31)    
1 29486U 06042A   26176.98380088  .00000048  00000+0  00000+0 0  9997
2 29486  54.7118 150.9897 0106764  54.6461 317.2277  2.00569396144576
GPS BIIRM-3 (PRN 12)    
1 29601U 06052A   26175.89728205  .00000073  00000+0  00000+0 0  9991
2 29601  54.9340 213.7005 0084883  90.7884 270.2594  2.00558525143560
GPS BIIRM-4 (PRN 15)    
1 32260U 07047A   26176.70101598 -.00000078  00000+0  00000+0 0  9998
2 32260  54.1013  79.7146 0167093  87.5654 274.3584  2.00554930136982
GPS BIIRM-5 (PRN 29)    
1 32384U 07062A   26177.02337119 -.00000053  00000+0  00000+0 0  9991
2 32384  55.0244 273.7972 0035842 166.2118 194.0389  2.00560714135699
GPS BIIRM-6 (PRN 07)    
1 32711U 08012A   26177.11012535  .00000044  00000+0  00000+0 0  9992
2 32711  54.4985 149.5683 0211417 247.9502 109.7679  2.00572718133932
GPS BIIRM-8 (PRN 05)    
1 35752U 09043A   26177.24165208 -.00000085  00000+0  00000+0 0  9991
2 35752  56.2160  27.0962 0053806  83.5895  20.4954  2.00553954123542
GPS BIIF-1  (PRN 25)    
1 36585U 10022A   26177.17735284  .00000086  00000+0  00000+0 0  9994
2 36585  54.2697 208.1998 0126415  66.1254 110.5526  2.00562953117777
GPS BIIF-3  (PRN 24)    
1 38833U 12053A   26176.79182065  .00000033  00000+0  00000+0 0  9990
2 38833  53.5874 143.2468 0180792  65.8883 295.9596  2.00567681 99617
GPS BIIF-4  (PRN 27)    
1 39166U 13023A   26176.65900812 -.00000046  00000+0  00000+0 0  9996
2 39166  54.4973 268.6283 0141475  51.0602 310.2306  2.00563550 96051
GPS BIIF-5  (PRN 30)    
1 39533U 14008A   26177.15932725  .00000041  00000+0  00000+0 0  9996
2 39533  53.6559 148.9537 0084215 231.3935 127.8246  2.00560425 89866
GPS BIIF-6  (PRN 06)    
1 39741U 14026A   26176.43776981 -.00000104  00000+0  00000+0 0  9998
2 39741  56.4940 331.1963 0038118 326.3837  33.3680  2.00560534 88704
GPS BIIF-7  (PRN 09)    
1 40105U 14045A   26177.02815772 -.00000068  00000+0  00000+0 0  9992
2 40105  55.3587  88.1127 0033686 118.2750 242.0678  2.00559107 86251
GPS BIIF-8  (PRN 03)    
1 40294U 14068A   26176.89738811 -.00000085  00000+0  00000+0 0  9997
2 40294  56.9936  30.6191 0067228  70.9208 289.8621  2.00576883 85389
GPS BIIF-9  (PRN 26)    
1 40534U 15013A   26177.03735334  .00000087  00000+0  00000+0 0  9990
2 40534  53.1674 203.8114 0109747  40.1916 320.6840  2.00550980 82004
GPS BIIF-10 (PRN 08)    
1 40730U 15033A   26177.19577832 -.00000036  00000+0  00000+0 0  9999
2 40730  53.9753 266.7149 0115154  30.2445 330.4598  2.00555927 80171
GPS BIIF-11 (PRN 10)    
1 41019U 15062A   26176.75292304 -.00000085  00000+0  00000+0 0  9995
2 41019  56.9652  30.4811 0112145 231.0110 128.0368  2.00567225 78001
GPS BIIF-12 (PRN 32)    
1 41328U 16007A   26174.85002808 -.00000060  00000+0  00000+0 0  9998
2 41328  55.5277  89.1954 0095820 247.3210 111.6653  2.00551374 75978
GPS BIII-1  (PRN 04)    
1 43873U 18109A   26177.15649352 -.00000064  00000+0  00000+0 0  9991
2 43873  55.6873  91.8327 0038420 197.7328 282.2646  2.00562253 55257
GPS BIII-2  (PRN 18)    
1 44506U 19056A   26176.57429719 -.00000105  00000+0  00000+0 0  9991
2 44506  55.6328 330.8088 0062391 197.6754 125.8238  2.00570153 50232
GPS BIII-3  (PRN 23)    
1 45854U 20041A   26175.71392622 -.00000091  00000+0  00000+0 0  9995
2 45854  56.6750  28.6507 0064456 204.5351 155.8006  2.00558689 44196
GPS BIII-4  (PRN 14)    
1 46826U 20078A   26177.24606884  .00000083  00000+0  00000+0 0  9993
2 46826  53.9789 210.4109 0073823 207.4122 155.8219  2.00565126 41695
GPS BIII-5  (PRN 11)    
1 48859U 21054A   26177.22745649 -.00000105  00000+0  00000+0 0  9993
2 48859  55.1700 332.0958 0025665 228.3477 307.7469  2.00568733 36932
GPS BIII-6  (PRN 28)    
1 55268U 23009A   26176.93387399  .00000044  00000+0  00000+0 0  9999
2 55268  55.1240 148.1751 0006264 317.1527  45.3707  2.00571086 25424
GPS BIII-7  (PRN 01)    
1 62339U 24242A   26177.06783932 -.00000106  00000+0  00000+0 0  9994
2 62339  54.8454 333.8210 0017666   4.5395 177.0108  2.00572026 11434
GPS BIII-8  (PRN 21)    
1 64202U 25116A   26176.81205127 -.00000089  00000+0  00000+0 0  9993
2 64202  55.2403  30.7831 0008279 342.5010 197.3025  2.00575516  8048
GPS BIII-9  (PRN 20)    
1 67588U 26017A   26176.67284539 -.00000069  00000+0  00000+0 0  9990
2 67588  55.0936  88.4146 0021538 258.6649 101.0949  2.00571004431780
GPS BIII-10 (PRN 13)    
1 68791U 26087A   26173.65141046  .00000058  00000+0  00000+0 0  9991
2 68791  54.9627 207.5713 0020681 106.6591  76.9843  2.00570839   940
